# From MPEC 2020-R04
C/2020 P1 (NEOWISE),e,44.9412,53.4031,8.9467,415.7920,0.0001162,0.99917467,0.0000,10/20.1610/2020,2000,g 14.0,3.2
# From MPEC 2020-R04
C/2020 P3 (ATLAS),e,61.8916,19.5071,82.4457,3985,0.0000039,0.99829173,0.0000,04/23.4611/2021,2000,g  6.0,4.0
# From MPEC 2020-QN1
C/2020 P4-A (SOHO),h,08/08.2175/2020,26.3307,175.2072,177.4762,1.002090,0.090759,2000,5.3,6.0
# From MPEC 2020-QN1
C/2020 P4-B (SOHO),h,08/08.1268/2020,27.3009,171.5000,173.4031,1.000484,0.098304,2000,0.0,6.0
# From MPEC 2020-QN1
C/2020 P4-C (SOHO),h,08/06.8019/2020,37.4581,164.0421,116.7322,1.012860,0.086542,2000,-1.6,6.0
# From MPEC 2020-R04
C/2020 Q1 (Borisov),e,142.9314,52.4978,10.3881,277.2404,0.0002135,0.99524589,0.0000,08/15.1995/2020,2000,g 14.0,4.0
# From MPEC 2020-R04
C/2020 Q2 (PANSTARRS),e,3.3126,179.9148,118.6863,10.89699,0.0273996,0.50413247,6.1017,09/18.0/2020,2000,g 12.0,3.2
# From MPEC 2020-RB9
C/2020 R2 (PANSTARRS),e,53.2416,195.0809,211.7389,459.2289,0.0001002,0.98978636,0.0000,02/24.2495/2022,2000,g  9.0,4.0
# From MPEC 2020-S33
C/2020 R4 (ATLAS),e,164.4570,323.3174,46.9696,75.32620,0.0015076,0.98637793,0.0000,03/02.1579/2021,2000,g 13.5,4.0
# From  98, 1083
1P/Halley,e,162.2938,58.3736,111.3123,17.87128,0.0130458,0.96616608,165.1143,09/18.0/2020,2000,g  4.0,6.0
# From MPC118097
2P/Encke,e,11.7650,334.5495,186.5661,2.215453,0.2988892,0.84801131,25.1527,09/18.0/2020,2000,g 11.5,6.0
# From MPEC 2015-A10
4P/Faye,e,8.0078,193.0835,206.8788,3.828347,0.1315792,0.57753561,313.1217,09/18.0/2020,2000,g  8.0,6.0
# From MPEC 2015-S97
6P/d'Arrest,e,19.5122,138.9344,178.0961,3.497649,0.1506745,0.61261207,305.0366,09/18.0/2020,2000,g  9.0,4.0
# From MPEC 2015-E14
7P/Pons-Winnecke,e,22.3638,93.3784,172.5795,3.414723,0.1561964,0.63851750,320.7796,09/18.0/2020,2000,g  9.0,4.0
# From MPC 75715
8P/Tuttle,e,54.9116,270.2049,207.4902,5.703960,0.0723501,0.82009768,335.1277,09/18.0/2020,2000,g  9.0,4.0
# From MPEC 2019-JE2
9P/Tempel,e,10.4713,68.7316,179.3197,3.147270,0.1765237,0.50943539,265.9407,09/18.0/2020,2000,g  9.0,4.0
# From MPC114607
10P/Tempel,e,12.0398,117.8098,195.5188,3.060656,0.1840697,0.53852045,325.5240,09/18.0/2020,2000,g  5.0,10.0
# From MPEC 2017-L52
11P/Tempel-Swift-LINEAR,e,14.4204,238.9176,167.9418,3.282791,0.1657064,0.57694321,348.5296,09/18.0/2020,2000,g  9.0,4.0
# From  27, 604
12P/Pons-Brooks,e,74.0860,255.7216,199.0348,17.09765,0.0139412,0.95430231,341.7224,09/18.0/2020,2000,g  5.0,6.0
# From  27, 604
13P/Olbers,e,44.6262,85.8604,64.5312,16.68098,0.0144668,0.92971187,340.0002,09/18.0/2020,2000,g  5.0,6.0
# From MPC100283
14P/Wolf,e,27.9041,202.0740,158.9839,4.259090,0.1121318,0.35669290,114.4627,09/18.0/2020,2000,g  5.5,12.0
# From MPC 92276
15P/Finlay,e,6.7977,13.7221,347.8355,3.504402,0.1502392,0.71698833,315.1443,09/18.0/2020,2000,g 12.0,4.0
# From MPC 92276
16P/Brooks,e,3.0113,138.8700,245.1463,3.658998,0.1408189,0.48672005,330.1355,09/18.0/2020,2000,g  7.5,10.0
# From MPC114607
17P/Holmes,e,19.0290,326.6224,24.4796,3.638415,0.1420155,0.42817887,338.0092,09/18.0/2020,2000,g 10.0,6.0
# From MPC 92984
19P/Borrelly,e,29.3763,74.3885,351.8218,3.606144,0.1439261,0.63827862,287.8062,09/18.0/2020,2000,g  4.5,10.0
# From MPC111773
21P/Giacobini-Zinner,e,32.0168,195.3614,172.8480,3.495963,0.1507835,0.71070709,111.3648,09/18.0/2020,2000,g  9.0,6.0
# From MPC 94283
22P/Kopff,e,4.7420,120.8372,162.9679,3.442665,0.1542986,0.54889341,275.7511,09/18.0/2020,2000,g  3.0,10.4
# From MPC 14747
23P/Brorsen-Metcalf,e,19.1335,312.4180,128.8183,16.95408,0.0141186,0.97106249,0.0000,08/10.6085/1989,2000,g 10.0,6.0
# From MPC110085
24P/Schaumasse,e,11.6430,79.2260,57.8173,4.056570,0.1206328,0.70880600,124.9573,09/18.0/2020,2000,g  6.5,14.0
# From MPC 94674
26P/Grigg-Skjellerup,e,22.4420,211.5395,2.1932,3.013979,0.1883622,0.64058092,135.1328,09/18.0/2020,2000,g 12.0,16.0
# From MPC 78188
27P/Crommelin,e,29.1434,250.5835,195.9865,9.189203,0.0353824,0.91800402,118.3151,09/18.0/2020,2000,g 12.0,8.0
# From MPEC 2020-QH5
28P/Neujmin,e,14.3109,346.3400,347.4237,6.976601,0.0534858,0.77380622,350.6446,09/18.0/2020,2000,g  8.5,6.0
# From MPEC 2020-QH5
29P/Schwassmann-Wachmann,e,9.3668,312.3751,48.4396,6.034359,0.0664902,0.04421716,36.6503,09/18.0/2020,2000,g  4.0,4.0
# From MPC110085
30P/Reinmuth,e,8.5826,118.9241,11.6861,3.687262,0.1392028,0.52948164,155.1429,09/18.0/2020,2000,g  9.5,6.0
# From MPC108597
31P/Schwassmann-Wachmann,e,4.5473,114.1144,18.2450,4.240726,0.1128609,0.19236183,49.7192,09/18.0/2020,2000,g  5.0,8.0
# From MPC 92276
32P/Comas Sola,e,9.9208,57.3790,53.5030,4.496432,0.1033718,0.55827118,223.8370,09/18.0/2020,2000,g  6.5,8.0
# From MPEC 2013-O31
33P/Daniel,e,22.3211,66.3483,20.6101,4.083107,0.1194587,0.45227957,178.7868,09/18.0/2020,2000,g 10.0,12.0
# From  15, 452
35P/Herschel-Rigollet,e,64.828,356.451,29.048,28.5666,0.006455,0.9735542,0.000,12/24.1014/2091,2000,g  9.0,4.0
# From MPC105240
36P/Whipple,e,9.9521,181.8615,200.7861,4.131168,0.1173802,0.26857192,12.8295,09/18.0/2020,2000,g  8.5,6.0
# From MPEC 2018-HA5
37P/Forbes,e,8.9574,314.5608,330.0921,3.459447,0.1531772,0.53407624,132.9127,09/18.0/2020,2000,g 10.5,4.8
# From MPEC 2018-S50
38P/Stephan-Oterma,e,18.3552,77.9896,359.5351,11.25146,0.0261151,0.85893141,17.6826,09/18.0/2020,2000,g  3.5,12.0
# From MPC115887
39P/Oterma,e,1.5612,299.2553,95.1571,7.404324,0.0489188,0.22403038,312.6172,09/18.0/2020,2000,g  7.0,6.0
# From MPC100283
40P/Vaisala,e,11.4697,133.7807,47.4588,4.950985,0.0894678,0.62988285,191.1251,09/18.0/2020,2000,g  5.5,12.0
# From MPC105240
41P/Tuttle-Giacobini-Kresak,e,9.2210,140.9938,62.2626,3.086251,0.1817847,0.66021194,228.1389,09/18.0/2020,2000,g 10.0,16.0
# From MPC 94283
42P/Neujmin,e,3.9896,150.1878,147.1813,4.872938,0.0916258,0.58545579,182.0540,09/18.0/2020,2000,g 13.0,6.0
# From MPC102956
43P/Wolf-Harrington,e,9.3763,244.3667,224.0739,4.308353,0.1102141,0.43810737,163.4650,09/18.0/2020,2000,g  8.0,6.0
# From MPEC 2020-HN5
44P/Reinmuth,e,5.8984,286.4810,58.1359,3.688617,0.1391262,0.42717611,278.9503,09/18.0/2020,2000,g  8.3,6.0
# From MPC103849
45P/Honda-Mrkos-Pajdusakova,e,4.3247,87.7030,327.9505,3.050330,0.1850051,0.81759804,251.8437,09/18.0/2020,2000,g 13.5,8.0
# From MPC114607
46P/Wirtanen,e,11.7437,82.1569,356.3612,3.091701,0.1813042,0.65830191,116.9963,09/18.0/2020,2000,g 14.0,6.0
# From NK 2718
47P/Ashbrook-Jackson,e,13.0354,356.9252,357.6068,4.124935,0.1176463,0.31800424,140.6282,09/18.0/2020,2000,g  9.0,4.0
# From MPEC 2015-M77
48P/Johnson,e,12.2080,110.1267,216.6240,3.500519,0.1504892,0.42737086,115.4968,09/18.0/2020,2000,g  9.0,4.0
# From MPEC 2020-K19
49P/Arend-Rigaux,e,19.0461,118.7967,332.9715,3.569933,0.1461214,0.59851148,116.3243,09/18.0/2020,2000,g 11.3,4.4
# From MPEC 2015-S97
50P/Arend,e,19.0984,355.1623,49.3338,4.089322,0.1191865,0.52864020,200.9943,09/18.0/2020,2000,g  9.5,6.0
# From MPEC 2020-QH5
124P/Mrkos,e,31.5128,0.3700,183.8631,3.317829,0.1630884,0.50341989,23.5010,09/18.0/2020,2000,g 13.5,2.8
# From MPEC 2020-QH5
143P/Kowal-Mrkos,e,4.6970,245.2646,320.4758,4.285628,0.1110919,0.41057533,96.2220,09/18.0/2020,2000,g 13.5,2.0
# From MPEC 2020-QH5
156P/Russell-LINEAR,e,17.2629,35.3699,0.4241,3.459911,0.1531464,0.61472128,350.6780,09/18.0/2020,2000,g 15.5,2.0
# From MPEC 2020-QH5
162P/Siding Spring,e,27.5545,30.9122,357.1291,3.090766,0.1813865,0.58290216,345.3413,09/18.0/2020,2000,g 12.0,4.0
# From MPEC 2020-QH5
184P/Lovas,e,4.5732,173.2548,186.4343,3.793451,0.1333989,0.55099830,354.9065,09/18.0/2020,2000,g 13.5,4.0
# From MPEC 2020-QH5
186P/Garradd,e,28.5963,326.7200,283.5905,5.007374,0.0879608,0.12404576,44.5508,09/18.0/2020,2000,g  7.5,4.0
# From MPEC 2020-QH5
191P/McNaught,e,8.8431,98.2365,283.9661,3.636446,0.1421308,0.38613248,333.9915,09/18.0/2020,2000,g 13.0,4.0
# From MPEC 2020-QH5
220P/McNaught,e,8.1282,150.1040,180.5388,3.116498,0.1791446,0.50190548,345.0160,09/18.0/2020,2000,g 15.0,4.0
# From MPEC 2020-QH5
241P/LINEAR,e,21.1060,305.4834,111.3483,4.923679,0.0902131,0.61037400,331.9782,09/18.0/2020,2000,g 13.5,4.0
# From MPEC 2020-QH5
244P/Scotti,e,2.2592,353.9901,92.8838,4.895354,0.0909972,0.19848060,288.2014,09/18.0/2020,2000,g  9.0,4.0
# From MPEC 2020-QH5
246P/NEAT,e,15.9874,78.7471,176.2810,4.015435,0.1224913,0.28675645,340.6780,09/18.0/2020,2000,g 10.5,4.0
# From MPEC 2020-QH5
249P/LINEAR,e,8.3968,239.1763,65.6066,2.761942,0.2147248,0.82013884,17.2860,09/18.0/2020,2000,g 15.5,4.0
# From MPEC 2020-QH5
254P/McNaught,e,32.5723,129.1742,219.4821,4.614003,0.0994460,0.32011553,358.8393,09/18.0/2020,2000,g 11.0,4.0
# From MPEC 2020-QH5
277P/LINEAR,e,16.7790,276.3446,152.3170,3.851745,0.1303821,0.50555630,346.5485,09/18.0/2020,2000,g 14.0,4.0
# From MPEC 2020-QH5
278P/McNaught,e,6.6851,15.4479,238.0863,3.693633,0.1388428,0.43496528,0.8242,09/18.0/2020,2000,g 14.0,4.0
# From MPEC 2020-QH5
294P/LINEAR,e,18.2216,312.5901,235.5449,3.207043,0.1716117,0.59463976,50.3138,09/18.0/2020,2000,g 15.5,4.0
# From MPEC 2020-QH5
296P/Garradd,e,25.2349,263.6407,350.1260,3.497036,0.1507141,0.47857957,0.0114,09/18.0/2020,2000,g 14.0,4.0
# From MPEC 2020-QH5
312P/NEAT,e,19.7682,144.6696,207.5277,3.466575,0.1527049,0.42789427,358.9330,09/18.0/2020,2000,g 16.0,4.0
# From MPEC 2020-QH5
313P/Gibbs,e,10.9833,105.9721,254.6324,3.161511,0.1753323,0.23486972,27.3065,09/18.0/2020,2000,g 15.0,4.0
# From MPEC 2020-QH5
348P/PANSTARRS,e,17.7386,312.9399,135.4360,3.153643,0.1759889,0.30656613,269.8914,09/18.0/2020,2000,g 14.0,4.0
# From MPEC 2020-QH5
376P/LONEOS,e,1.1938,314.8340,285.2195,5.867753,0.0693420,0.51823756,24.6508,09/18.0/2020,2000,g 12.5,4.0
# From NK 3013
51P-A/Harrington,e,5.4257,83.6707,269.2516,3.708026,0.1380352,0.54308629,257.3093,09/18.0/2020,2000,g 16.0,8.0
# From NK 3014
51P-A/Harrington,e,5.4249,83.6863,269.2123,3.709046,0.1379783,0.54315884,257.0507,09/18.0/2020,2000,g 10.0,8.0
# From NK 3014
51P-A/Harrington,e,5.4249,83.6863,269.2123,3.709028,0.1379793,0.54315574,257.0540,09/18.0/2020,2000,g 10.0,8.0
# From MPEC 2015-L08
